OBJECT_NAME,OBJECT_ID,EPOCH,MEAN_MOTION,ECCENTRICITY,INCLINATION,RA_OF_ASC_NODE,ARG_OF_PERICENTER,MEAN_ANOMALY,EPHEMERIS_TYPE,CLASSIFICATION_TYPE,NORAD_CAT_ID,ELEMENT_SET_NO,REV_AT_EPOCH,BSTAR,MEAN_MOTION_DOT,MEAN_MOTION_DDOT
STARLINK-4147,2022-086Q,2026-06-08T02:42:08.588160,15.08836979,.0001298,53.1700,148.1544,89.0921,271.0219,0,U,53256,999,21471,.15513E-4,-.41E-6,0
STARLINK-4144,2022-086R,2026-06-08T03:56:20.195232,15.08837222,.0001229,53.1666,147.9214,98.1875,261.9256,0,U,53257,999,21472,.25871E-4,.124E-5,0
STARLINK-4127,2022-086S,2026-06-08T04:06:55.768320,15.08840117,.0001221,53.1687,147.8876,94.4540,265.6591,0,U,53258,999,21472,.31149E-4,.208E-5,0
STARLINK-4140,2022-086T,2026-06-08T03:03:17.106048,15.08829513,.0001344,53.1674,147.7292,89.0609,271.0536,0,U,53259,999,21472,.13183E-4,-.78E-6,0
STARLINK-4062,2022-086V,2026-06-08T03:40:26.531040,15.08833811,.0001319,53.1688,147.9746,88.7856,271.3286,0,U,53261,999,21472,.45051E-4,.429E-5,0
STARLINK-4085,2022-086W,2026-06-08T03:51:02.286432,15.08836032,.0001415,53.1673,147.9413,87.7280,272.3874,0,U,53262,999,21472,.5065E-4,.518E-5,0
STARLINK-4130,2022-086X,2026-06-08T03:35:08.700000,15.08825713,.0001339,53.1681,147.9913,100.8788,259.2354,0,U,53263,999,21472,.60187E-4,.67E-5,0
STARLINK-3950,2022-086Y,2026-06-08T03:45:45.620064,15.08833880,.0001516,53.1680,147.9565,75.3466,284.7693,0,U,53264,999,21472,.10087E-3,.1317E-4,0
STARLINK-4097,2022-086Z,2026-06-08T03:24:33.031008,15.08828572,.0001329,53.1679,148.0232,89.0810,271.0333,0,U,53265,999,21472,.11813E-4,-.1E-5,0
STARLINK-4058,2022-086AA,2026-06-08T03:29:51.326016,15.08826269,.0001516,53.1699,148.0107,100.9361,259.1801,0,U,53266,999,21472,.57288E-5,-.197E-5,0
STARLINK-4060,2022-086AB,2026-06-08T03:13:56.809920,15.08820730,.0001397,53.1680,148.0573,109.9248,250.1894,0,U,53267,999,21472,.21092E-3,.3069E-4,0
STARLINK-4109,2022-086AC,2026-06-08T03:19:14.666016,15.08833047,.0001297,53.1666,148.0404,65.1271,294.9855,0,U,53268,999,21472,.25249E-4,.114E-5,0
STARLINK-4122,2022-086AG,2026-06-08T04:45:21.208896,15.08836933,.0001125,53.1683,137.7704,83.7848,276.3272,0,U,53272,999,21486,.57259E-4,.623E-5,0
STARLINK-4051,2022-086AH,2026-06-08T02:43:28.614432,15.08835692,.0001158,53.1694,138.1528,90.0031,270.1093,0,U,53273,999,21484,-.18795E-4,-.587E-5,0
STARLINK-4050,2022-086AJ,2026-06-08T02:59:22.221600,15.08825725,.0001238,53.1692,138.0996,79.5786,280.5345,0,U,53274,999,21485,-.48414E-4,-.1058E-4,0
STARLINK-4179,2022-086AK,2026-06-08T02:38:12.156288,15.08826692,.0001237,53.1694,138.1671,91.3038,268.8095,0,U,53275,999,21484,-.62403E-4,-.1281E-4,0
STARLINK-4174,2022-086AL,2026-06-08T02:48:46.605312,15.08835821,.000123,53.1687,138.1349,88.8030,271.3102,0,U,53276,999,21484,-.36219E-4,-.864E-5,0
STARLINK-4178,2022-086AM,2026-06-08T04:02:57.808032,15.08839554,.0001303,53.1659,137.9254,87.6806,272.4335,0,U,53277,999,21485,.84823E-5,-.153E-5,0
STARLINK-4180,2022-086AN,2026-06-08T04:08:15.669312,15.08834536,.0001198,53.1675,137.8832,53.2009,306.9092,0,U,53278,999,21485,-.62624E-4,-.1284E-4,0
STARLINK-4169,2022-086AQ,2026-06-08T02:14:55.773312,15.08839172,.0001472,53.1699,92.9137,89.7455,270.3706,0,U,53280,999,21548,-.18759E-4,-.587E-5,0
STARLINK-4164,2022-086AS,2026-06-08T05:33:02.754432,15.08844972,.0001333,53.1673,137.6239,89.4890,270.6254,0,U,53282,999,21486,-.14014E-3,-.2518E-4,0
STARLINK-4175,2022-086AT,2026-06-08T03:41:45.618144,15.08839102,.0000621,53.1669,137.9721,50.5059,309.5987,0,U,53283,999,21485,.32095E-5,-.237E-5,0
STARLINK-4173,2022-086AV,2026-06-08T05:01:16.315968,15.08831021,.0001091,53.1693,137.7206,111.4153,248.6955,0,U,53285,999,21485,.68621E-4,.804E-5,0
STARLINK-4165,2022-086AW,2026-06-08T02:54:00.548352,15.08863674,.0001326,53.1687,137.8095,81.7330,278.3812,0,U,53286,999,21484,-.5881E-3,-.9642E-4,0
STARLINK-4107,2022-086AX,2026-06-08T04:50:39.228288,15.08829249,.0001063,53.1680,137.7530,104.2121,255.8988,0,U,53287,999,21485,.53998E-4,.571E-5,0
STARLINK-4162,2022-086AY,2026-06-08T05:06:33.073056,15.08835040,.000143,53.1696,137.7029,97.3837,262.7317,0,U,53288,999,21485,.32773E-4,.234E-5,0
STARLINK-4176,2022-086AZ,2026-06-08T02:41:31.125120,15.08830539,.0001272,53.1689,133.3005,86.3069,273.8068,0,U,53289,999,21490,.26734E-4,.137E-5,0
STARLINK-4149,2022-086BA,2026-06-08T03:18:43.042752,15.09004957,.0001507,53.2144,138.0735,57.6163,302.4975,0,U,53290,999,21484,.18042E-4,0,0
STARLINK-4166,2022-086BB,2026-06-08T05:04:31.592064,15.08830275,.0001363,53.1678,132.5017,88.1321,271.9826,0,U,53291,999,21492,.10458E-3,.1376E-4,0
STARLINK-4159,2022-086BC,2026-06-08T05:11:53.000160,15.08830820,.0001373,53.1672,137.8713,85.1703,274.9445,0,U,53292,999,21485,.475E-4,.468E-5,0
