STARLINK-4147           
1 53256U 22086Q   26159.11259940 -.00000041  00000+0  15513-4 0  9997
2 53256  53.1700 148.1544 0001298  89.0921 271.0219 15.08836979214718
STARLINK-4144           
1 53257U 22086R   26159.16412263  .00000124  00000+0  25871-4 0  9991
2 53257  53.1666 147.9214 0001229  98.1875 261.9256 15.08837222214726
STARLINK-4127           
1 53258U 22086S   26159.17147880  .00000208  00000+0  31149-4 0  9991
2 53258  53.1687 147.8876 0001221  94.4540 265.6591 15.08840117214723
STARLINK-4140           
1 53259U 22086T   26159.12728132 -.00000078  00000+0  13183-4 0  9996
2 53259  53.1674 147.7292 0001344  89.0609 271.0536 15.08829513214720
STARLINK-4062           
1 53261U 22086V   26159.15308485  .00000429  00000+0  45051-4 0  9995
2 53261  53.1688 147.9746 0001319  88.7856 271.3286 15.08833811214727
STARLINK-4085           
1 53262U 22086W   26159.16044313  .00000518  00000+0  50650-4 0  9994
2 53262  53.1673 147.9413 0001415  87.7280 272.3874 15.08836032214722
STARLINK-4130           
1 53263U 22086X   26159.14940625  .00000670  00000+0  60187-4 0  9999
2 53263  53.1681 147.9913 0001339 100.8788 259.2354 15.08825713214723
STARLINK-3950           
1 53264U 22086Y   26159.15677801  .00001317  00000+0  10087-3 0  9996
2 53264  53.1680 147.9565 0001516  75.3466 284.7693 15.08833880214725
STARLINK-4097           
1 53265U 22086Z   26159.14204897 -.00000100  00000+0  11813-4 0  9996
2 53265  53.1679 148.0232 0001329  89.0810 271.0333 15.08828572214726
STARLINK-4058           
1 53266U 22086AA  26159.14573294 -.00000197  00000+0  57288-5 0  9990
2 53266  53.1699 148.0107 0001516 100.9361 259.1801 15.08826269214720
STARLINK-4060           
1 53267U 22086AB  26159.13468530  .00003069  00000+0  21092-3 0  9998
2 53267  53.1680 148.0573 0001397 109.9248 250.1894 15.08820730214728
STARLINK-4109           
1 53268U 22086AC  26159.13836419  .00000114  00000+0  25249-4 0  9991
2 53268  53.1666 148.0404 0001297  65.1271 294.9855 15.08833047214722
STARLINK-4122           
1 53272U 22086AG  26159.19816214  .00000623  00000+0  57259-4 0  9994
2 53272  53.1683 137.7704 0001125  83.7848 276.3272 15.08836933214869
STARLINK-4051           
1 53273U 22086AH  26159.11352563 -.00000587  00000+0 -18795-4 0  9992
2 53273  53.1694 138.1528 0001158  90.0031 270.1093 15.08835692214844
STARLINK-4050           
1 53274U 22086AJ  26159.12456275 -.00001058  00000+0 -48414-4 0  9994
2 53274  53.1692 138.0996 0001238  79.5786 280.5345 15.08825725214851
STARLINK-4179           
1 53275U 22086AK  26159.10986292 -.00001281  00000+0 -62403-4 0  9992
2 53275  53.1694 138.1671 0001237  91.3038 268.8095 15.08826692214840
STARLINK-4174           
1 53276U 22086AL  26159.11720608 -.00000864  00000+0 -36219-4 0  9993
2 53276  53.1687 138.1349 0001230  88.8030 271.3102 15.08835821214843
STARLINK-4178           
1 53277U 22086AM  26159.16872463 -.00000153  00000+0  84823-5 0  9991
2 53277  53.1659 137.9254 0001303  87.6806 272.4335 15.08839554214852
STARLINK-4180           
1 53278U 22086AN  26159.17240358 -.00001284  00000+0 -62624-4 0  9996
2 53278  53.1675 137.8832 0001198  53.2009 306.9092 15.08834536214856
STARLINK-4169           
1 53280U 22086AQ  26159.09370108 -.00000587  00000+0 -18759-4 0  9992
2 53280  53.1699  92.9137 0001472  89.7455 270.3706 15.08839172215485
STARLINK-4164           
1 53282U 22086AS  26159.23128188 -.00002518  00000+0 -14014-3 0  9994
2 53282  53.1673 137.6239 0001333  89.4890 270.6254 15.08844972214861
STARLINK-4175           
1 53283U 22086AT  26159.15400021 -.00000237  00000+0  32095-5 0  9991
2 53283  53.1669 137.9721 0000621  50.5059 309.5987 15.08839102214854
STARLINK-4173           
1 53285U 22086AV  26159.20921662  .00000804  00000+0  68621-4 0  9990
2 53285  53.1693 137.7206 0001091 111.4153 248.6955 15.08831021214853
STARLINK-4165           
1 53286U 22086AW  26159.12083968 -.00009642  00000+0 -58810-3 0  9999
2 53286  53.1687 137.8095 0001326  81.7330 278.3812 15.08863674214841
STARLINK-4107           
1 53287U 22086AX  26159.20184292  .00000571  00000+0  53998-4 0  9994
2 53287  53.1680 137.7530 0001063 104.2121 255.8988 15.08829249214850
STARLINK-4162           
1 53288U 22086AY  26159.21288279  .00000234  00000+0  32773-4 0  9990
2 53288  53.1696 137.7029 0001430  97.3837 262.7317 15.08835040214854
STARLINK-4176           
1 53289U 22086AZ  26159.11216580  .00000137  00000+0  26734-4 0  9998
2 53289  53.1689 133.3005 0001272  86.3069 273.8068 15.08830539214902
STARLINK-4149           
1 53290U 22086BA  26159.13799818  .00000000  00000+0  18042-4 0  9994
2 53290  53.2144 138.0735 0001507  57.6163 302.4975 15.09004957214847
STARLINK-4166           
1 53291U 22086BB  26159.21147676  .00001376  00000+0  10458-3 0  9992
2 53291  53.1678 132.5017 0001363  88.1321 271.9826 15.08830275214929
STARLINK-4159           
1 53292U 22086BC  26159.21658565  .00000468  00000+0  47500-4 0  9997
2 53292  53.1672 137.8713 0001373  85.1703 274.9445 15.08830820214855
